UNKNOWN                 
1 81052U          25235.48526516  .00002114  00000+0  61558-3 0  9995
2 81052  65.7737 309.9230 0564751   1.5595 358.7065 13.80683714584947
UNKNOWN                 
1 81069U          25238.18098821  .00002926  00000+0  39579-2 0  9994
2 81069 100.3816 132.8425 0067087 316.9253  42.6645 13.59535533501170
UNKNOWN                 
1 81078U          25235.02142389  .00000294  00000+0  99953-2 0  9991
2 81078  65.1142  75.9685 0181849  32.7920 121.5734 11.22433881482087
UNKNOWN                 
1 81111U          25237.76700952  .00020071  00000+0  39408-2 0  9992
2 81111  62.8787 121.2741 3888253 352.9699   2.8882  7.51503461263731
UNKNOWN                 
1 81123U          25218.91932975  .00000773  00000+0  77615-3 0  9993
2 81123  99.9808 293.3926 0003019  80.7631 279.3861 13.81212189588634
UNKNOWN                 
1 81134U          25238.60161621  .00000035  00000+0  10106-3 0  9998
2 81134  90.2532   1.5582 0024344 315.3517  44.5640 12.92942315448639
UNKNOWN                 
1 81161U          25229.50185403  .00000486  00000+0  55515-3 0  9994
2 81161 100.4283  60.7523 0058269 219.3725 140.3178 13.75257801540012
UNKNOWN                 
1 81219U          25236.34486164  .00000422  00000+0  38044-3 0  9994
2 81219  82.9222  89.0616 0020996 163.6219 196.5624 13.81640193592276
UNKNOWN                 
1 81228U          25238.43975409  .00005213  00000+0  16662-2 0  9995
2 81228  70.5224 159.3658 0064219 167.9055 192.3637 14.38926733610504
UNKNOWN                 
1 81254U 70025    25211.83197388  .00003452  00000+0  23099-2 0  9990
2 81254 100.3971 255.5215 0074096  67.7765 293.1234 14.00409914594006
UNKNOWN                 
1 81279U          25237.96048431  .00000708  00000+0  28697-3 0  9990
2 81279  98.1434 306.0692 0207661 344.0259  15.4435 14.19546386447164
UNKNOWN                 
1 81301U          25236.28074252  .00000170  00000+0  24059-3 0  9991
2 81301  66.7574 199.6787 0095379 301.7002 126.0362 13.76613709591157
UNKNOWN                 
1 81311U 90105    25232.42309214  .00000662  00000+0  14408-3 0  9991
2 81311  98.7504 284.2014 0133025 113.6561 260.9786 14.56281455622950
UNKNOWN                 
1 81317U          25236.93488635  .00000124  00000+0  31402-3 0  9993
2 81317  67.1362  58.3726 0206748 112.8028 323.0333 13.37950859573942
UNKNOWN                 
1 81323U          25236.56099498  .00004513  00000+0  66646-3 0  9998
2 81323  65.7547 336.0072 0351980  11.6133 349.2817 14.42026913 97142
UNKNOWN                 
1 81329U          25238.49624248  .00000965  00000+0  38680-3 0  9999
2 81329  65.8240  17.5527 0828712  79.5221 289.8025 13.21518065563775
UNKNOWN                 
1 81341U          25238.13070323  .00000443  00000+0  11563-2 0  9994
2 81341  99.5064 195.0986 0395280  36.7995 325.9562 12.97074294509344
UNKNOWN                 
1 81343U          25237.03517949  .00003772  00000+0  28716-3 0  9991
2 81343  85.8682 257.8999 0006454 306.3917  53.6720 15.01789532437845
UNKNOWN                 
1 81359U          25237.21413653  .00000223  00000+0  28008-3 0  9997
2 81359  66.7996 314.0688 0107547  37.8013 323.0550 13.78580390590384
UNKNOWN                 
1 81366U          25235.99325921  .00001334  00000+0  49693-3 0  9995
2 81366  65.8863 333.9768 0714372 135.6967 230.3596 13.44787691 51062
UNKNOWN                 
1 81371U          25237.97582877  .00002553  00000+0  42890-3 0  9992
2 81371  98.8182 325.7844 0071222 343.4635  16.4245 14.69014855625865
UNKNOWN                 
1 81386U          25238.26087171  .00004642  00000+0  15790-2 0  9997
2 81386  71.0467 231.5279 0095862 259.0691  99.9646 14.34481342608678
UNKNOWN                 
1 81390U          25236.87536373 -.00000059  00000+0 -62856-4 0  9997
2 81390 103.1076 118.2669 0181427 338.1979  21.1428 12.35712100486522
UNKNOWN                 
1 81392U          25236.68630170  .00002506  00000+0  24166-2 0  9995
2 81392 100.3882 213.9644 0042655 325.2399 213.6147 13.80732499586987
UNKNOWN                 
1 81405U          25230.40511706  .00001240  00000+0  96632-3 0  9999
2 81405  99.4799 276.7040 0161572 174.2041 186.1035 13.88398932545657
UNKNOWN                 
1 81406U          25219.98895852  .00001352  00000+0  58604-3 0  9998
2 81406  65.8043  79.8077 0861662  15.9452 346.6971 13.11392482517058
UNKNOWN                 
1 81427U          25238.39628873  .00000891  00000+0  54440-3 0  9995
2 81427  98.7600 123.9870 0085258 344.3618  15.4920 14.06673681536536
UNKNOWN                 
1 81438U          25230.90750037  .00001991  00000+0  29796-2 0  9991
2 81438 100.3017  97.7907 0059279   1.4942 358.6359 13.53894626576261
UNKNOWN                 
1 81439U          25238.04518669  .00000704  00000+0  20655-2 0  9994
2 81439  67.1637 352.0071 0607604 269.7585  83.3835 12.62535844248172
UNKNOWN                 
1 81449U          25237.91315377  .00029714  00000+0  33967-2 0  9993
2 81449  66.7969 304.7431 0037504 229.6301 130.1551 14.85407283617322
UNKNOWN                 
1 81478U          25234.55786174  .00002940  00000+0  10922-2 0  9997
2 81478  98.9496 143.7472 0148636 324.1941 159.3560 14.27014400606931
UNKNOWN                 
1 81488U          25235.59200324  .00000354  00000+0  56531-3 0  9995
2 81488 100.0172 106.5263 0043976 276.6074 112.8504 13.56429472581565
UNKNOWN                 
1 81497U          25236.93184345  .00003128  00000+0  28985-2 0  9991
2 81497 100.3044 121.2386 0028121 302.0926 125.0219 13.83029587201113
UNKNOWN                 
1 81499U          25236.95895769  .00002013  00000+0  56993-3 0  9997
2 81499  74.0481  65.9442 0001964 179.5341 180.5820 14.46210085466547
UNKNOWN                 
1 81535U          25237.18965328  .00001110  00000+0  47064-3 0  9999
2 81535  98.2062 328.3761 0237643 105.6496 257.1036 14.13034553371922
UNKNOWN                 
1 81536U          25236.87399806  .00000360  00000+0  24793-2 0  9996
2 81536 101.9623  96.6915 0018661 102.3654 283.9004 12.55692298538029
UNKNOWN                 
1 81537U          25237.97934214 -.00000019  00000+0  16034-4 0  9990
2 81537  71.0420 334.2399 0079107 315.3725  44.1042 14.06986676605169
UNKNOWN                 
1 81552U          25236.25710953  .00000812  00000+0  18363-2 0  9994
2 81552  99.0525 178.1939 0257806 283.7094  73.5448 13.17877936564695
UNKNOWN                 
1 81599U          25235.54249817  .00000004  00000+0  11658-3 0  9996
2 81599  67.2944 161.4709 0251850 165.9757   8.8223 13.31316485570274
UNKNOWN                 
1 81605U          25238.51873648 -.00000964  00000+0 -34898-2 0  9996
2 81605  56.4316 160.0483 0173463 346.1210  13.4981 12.81125084172334
UNKNOWN                 
1 81614U          25236.96654259  .00003768  00000+0  22806-1 0  9996
2 81614 101.8320 236.2666 0404298 358.7688   1.2351 12.35772259524411
UNKNOWN                 
1 81615U          25238.52425712  .00003577  00000+0  12311-2 0  9990
2 81615  65.8287 314.1912 0783434 186.8836 172.0926 13.33340459568437
UNKNOWN                 
1 81617U          25238.74783315  .00000235  00000+0  16463-2 0  9992
2 81617 101.2606  57.9162 0036723  90.5702 269.9583 12.57428535539534
UNKNOWN                 
1 81624U          25233.69057804  .00003658  00000+0  61574-3 0  9992
2 81624  66.9771 118.7357 0072339 323.1454  36.4705 14.69036616623094
UNKNOWN                 
1 81640U          25238.58880931  .00000280  00000+0  31164-3 0  9998
2 81640  65.8294 352.9256 0978224 122.0452 247.9375 12.57109076496481
UNKNOWN                 
1 81652U 76077    25231.11423810  .00000344  00000+0  47009-3 0  9995
2 81652 102.1581  95.6066 0366240 258.4832 258.2383 13.44160921563115
UNKNOWN                 
1 81667U          25234.76544731  .00001586  00000+0  44217-3 0  9991
2 81667  74.0382 245.9287 0015498 215.5249 144.4879 14.47079873440449
UNKNOWN                 
1 81674U          25237.53662713  .00000899  00000+0  55627-3 0  9991
2 81674  66.8219 279.1644 0034085 292.1791 219.2646 14.09551865598325
UNKNOWN                 
1 81683U          25237.74427810  .00002334  00000+0  52377-3 0  9996
2 81683  81.2147  50.2013 0024450 269.9037  89.9357 14.56143100619993
UNKNOWN                 
1 81693U          25234.48584425  .00001332  00000+0  98814-2 0  9993
2 81693 101.0824 308.3030 0369816 294.4640  61.8270 12.25668530954015
UNKNOWN                 
1 81745U          25238.34270952  .00001545  00000+0  51135-3 0  9999
2 81745  70.9985 264.6156 0005699 351.7117   8.3923 14.39501076614146
UNKNOWN                 
1 81749U          25235.62423705  .00000010  00000+0  14561-3 0  9995
2 81749  99.7022 281.3424 0370806  93.6877  55.9856 12.77567182547817
UNKNOWN                 
1 81775U          25238.17759363  .00004474  00000+0  14471-2 0  9996
2 81775  82.9211 314.1139 0019276 214.2850 145.7098 14.38802067609651
UNKNOWN                 
1 81792U          25237.99341383  .00000795  00000+0  31268-3 0  9999
2 81792  65.8272 340.1095 0895851 330.3084  24.9813 13.10281275 65781
UNKNOWN                 
1 81812U          25238.65697972  .00006900  00000+0  43826-1 0  9999
2 81812 103.7987 136.3424 0350698  49.1092 313.9792 12.36957756527195
UNKNOWN                 
1 81816U          25238.32017030  .00000857  00000+0  67596-3 0  9995
2 81816  66.2370 206.3340 0183245 305.7858  52.6299 13.88993947594289
UNKNOWN                 
1 81819U          25233.18781446  .00000333  00000+0  25777-2 0  9999
2 81819 102.1706 328.7967 0031698 328.5189  31.3981 12.47428926533855
UNKNOWN                 
1 81824U          25238.49645205  .00002987  00000+0  11006-2 0  9993
2 81824  65.8442 272.4266 0029621  21.7472 338.4871 14.33775811609061
UNKNOWN                 
1 81833U          25238.29887303  .00000063  00000+0  20270-3 0  9995
2 81833  90.2449   0.5069 0025139 307.4987  52.3846 12.93667363438493
